ONEWEB-0118             
1 47264U 20100G   23311.59547288 -.00000544  00000+0 -15484-2 0  9992
2 47264  87.9039 180.0809 0001842  97.9815 262.1523 13.12443911139778
ONEWEB-0119             
1 47265U 20100H   23311.39430740  .00000432  00000+0  11653-2 0  9993
2 47265  87.9038 180.1580 0001454  74.0479 286.0810 13.12442590139727
ONEWEB-0120             
1 47266U 20100J   23311.57748574 -.00000211  00000+0 -62060-3 0  9997
2 47266  87.9041 180.1115 0001581  85.3488 274.7821 13.12441992139778
ONEWEB-0121             
1 47267U 20100K   23311.55948639  .00000371  00000+0  99639-3 0  9997
2 47267  87.9036 180.1147 0001706  70.2835 289.8477 13.12441665139687
ONEWEB-0122             
1 47268U 20100L   23311.55313438  .00000441  00000+0  11898-2 0  9999
2 47268  87.9036 180.1194 0001356  78.9670 281.1611 13.12442778139594
ONEWEB-0123             
1 47269U 20100M   23311.39643346 -.00000921  00000+0 -25951-2 0  9996
2 47269  87.9042 180.1562 0001843  70.9227 289.2101 13.12449476139711
ONEWEB-0124             
1 47270U 20100N   23311.61243451  .00000127  00000+0  31896-3 0  9998
2 47270  87.9034 180.1097 0001544  67.1374 292.9917 13.12442549139626
ONEWEB-0125             
1 47271U 20100P   23311.58913179 -.00000964  00000+0 -27149-2 0  9992
2 47271  87.8986 180.0901 0002194  82.7486 277.3892 13.12445325139684
